#dP2022 12  8  0  0  0.00000000      96 __u+U ITR14 FIT  IAC
## 2239 345600.00000000   900.00000000 59921 0.0000000000000
+  127   C01C02C03C04C05C06C07C08C09C10C11C12C13C14C16C19C20
+        C21C22C23C24C25C26C27C28C29C30C32C33C34C35C36C37C38
+        C39C40C41C42C43C44C45C46C60E01E02E03E04E05E07E08E09
+        E10E12E13E14E15E18E19E21E24E25E26E27E30E31E33E34E36
+        G01G02G03G04G05G06G07G08G09G10G11G12G13G14G15G16G17
+        G18G19G20G21G22G23G24G25G26G27G29G30G31G32J02J03J04
+        J07R01R02R03R04R05R06R07R08R09R10R11R12R13R14R15R17
+        R18R19R20R21R22R23R24R25  0  0  0  0  0  0  0  0  0
++        17 17 17 17 17  9  9 10  8 11  9  9  9  9  9  7  7
++         7  7  7  7  7  7  7  7  7  7  7  7  7  7  7  8  8
++         8  8  7  7  7  7  7  8 17  4  4  4  4  4  4  4  4
++         4  4  4  4  4  4  4  4  4  5  4  4  4  4  4  4  4
++         4  4  4  4  4  4  4  4  4  4  4  4  3  4  3  4  4
++         4  4  4  4  4  4  4  4  4  4  4  4  4  3  8  8  9
++        17  8  6  6  6  6 15  6  6  6 15  6  6  7  6  6  6
++         6  7  7  6  8 15  6  8  0  0  0  0  0  0  0  0  0
%c M  cc GPS ccc cccc cccc cccc cccc ccccc ccccc ccccc ccccc
%c cc cc ccc ccc cccc cccc cccc cccc ccccc ccccc ccccc ccccc
%f  0.0000000  0.000000000  0.00000000000  0.000000000000000
%f  0.0000000  0.000000000  0.00000000000  0.000000000000000
%i    0    0    0    0      0      0      0      0         0
%i    0    0    0    0      0      0      0      0         0
/* INFORMATION & ANALYSIS CENTER (IAC)            RAPID DATA
/* S/V CLOCKS ARE ALIGNED TO GNSS TIME                      
/* G:C1WC2W R:C1PC2P E:C1XC5X C:C2IC6I J:C1CC2S             
/* PCV:IGS20_2233 OL/AL:FES2004  NONE     YN ORB:CoN CLK:CoN
*  2022 12 08  2 15  0.00000000
PC01 -34357.187109  24404.887301     66.408314    931.496314
PC02   4483.541656  41948.388601    909.461965    249.686666
PC03 -14778.708539  39519.932460    604.821377    -84.649411
PC04 -39608.903014  14395.844753   -440.153699   -152.154397
PC05  21878.001780  36055.884534   1423.668190    -25.110167
PC06    -13.500383  36185.309655  21849.965273    221.917643
PC07 -11963.943612  26406.978387 -30615.835306    106.495427
PC08 -16974.346367  37280.313080   9601.619004    520.675452
PC09   4400.625194  39167.614204  16053.892709   -788.185615
PC10  -3864.672274  26984.757586 -31898.473038     55.377872
PC11 -17258.393444 -21478.597854  -4444.093926   -248.512803
PC12  -5887.779963 -24182.430150  12681.013144    335.784848
PC13 -10452.239870  37373.777454  16268.209825    152.662519
PC14 -19444.124459 -10265.203529 -17200.684694    245.296194
PC16  -4191.222367  32987.798225  26272.935545    105.250598
PC19  25754.687196   4570.352647   9726.896253   -905.803920
PC20  11706.038202  13670.102860  21327.959161    813.108974
PC21  10473.896827 -15189.262222 -20922.556216   -929.051219
PC22  25594.242350  -7593.517821  -8102.119494   -751.982226
PC23 -18844.010603  13694.894564  15356.983325   -872.509902
PC24  -1934.498629 -22729.719181  16079.688297   -704.236994
PC25 -15588.787030  -4912.876291  22606.350799     36.200108
PC26  10338.622151 -25886.690242   1693.568373    -46.748756
PC27  -1604.365697  20789.127251 -18566.972109     62.919125
PC28 -15010.401907   5969.115233 -22747.352339     44.728703
PC29  20848.427880  12973.678101  13257.263533     50.781375
PC30  13557.194036  23988.774462  -4485.510051      1.160155
PC32 -10470.451851  15274.204087  20886.421118   -690.385276
PC33 -25750.823385  -4477.185575  -9790.870900   -897.600185
PC34 -14283.872099 -23728.141390   3325.240821     56.233581
PC35  15844.035411  -4879.454240  22447.190366    123.101165
PC36  15178.164074   5930.203064 -22636.186060   -783.893561
PC37 -11763.025599  25284.746300   -400.034854   -890.125625
PC38 -20345.335231  36777.222623   1901.032884     43.434474
PC39  -5788.706506  30183.723708  28971.969607     -1.027494
PC40 -18740.923772  19699.118118 -32293.616870     -9.727793
PC41 -25823.116741   7400.718818   7599.312616   -356.729928
PC42 -10446.501041 -14068.176346 -21684.053005   -809.046435
PC43 -20817.670201 -13648.085062 -12597.231174     28.972036
PC44   1129.793342 -20757.196013  18595.896421    138.099482
PC45  18746.926751 -14105.812284 -15137.105771    -31.953994
PC46   3335.102923  21568.972865 -17369.208862    -18.111202
PC60   7300.118909  41519.205298   -247.761858     -0.736941
PE01 -21066.894195  19582.289187  -6963.878468   -577.351193
PE02  20906.736230 -19688.572347   7222.244767      7.233483
PE03  12158.795566 -12709.448764 -23816.299954   -627.606229
PE04   8544.728155  19989.682739  20089.865140     -9.352905
PE05  26197.785013   2230.852624 -13604.906049   -117.220786
PE07 -24742.355191 -15647.685112  -4392.008999     -5.411047
PE08  -8600.685235 -19861.472578 -20201.332323      0.936482
PE09  24686.525472  15660.959707   4601.065967   -756.194065
PE10   8699.352189  26241.720825  10563.696604   -496.235751
PE12   2826.331977  29443.424948   1291.411322   -319.806025
PE13 -13206.829626 -19045.570571 -18402.852353    430.435068
PE14 -10672.415271 -20970.734847  13730.470064     78.335944
PE15  -2678.605651 -29463.113021   -964.583636    702.404026
PE18  -2134.885683  20359.965650 -21481.912794   -654.031427
PE19 -14687.521663  10818.591028  23308.149058  -3800.363155
PE21 -26247.781698   8937.512064  10347.758619   -499.065657
PE24  16173.537571   8499.276349 -23307.692318   -989.583800
PE25  26229.408428  -8708.718302 -10612.265624   -594.432425
PE26 -15944.253225   3401.404690 -24695.006553  -1887.892712
PE27 -16898.357024  -7684.160642  23055.124460   -457.889683
PE30   3137.626327 -19886.875370  21697.804860  -1060.205645
PE31  -2286.506867  19597.317788 -22055.069495   -510.098777
PE33  -9344.155777  22426.913194 -16899.846946   -455.596721
PE34   9221.889328 -22579.702781  16781.431551    -18.496741
PE36  15883.424837  -2419.887157  24868.363065   -472.110827
PG01  13078.005282 -11855.685284  19417.918008    240.802509
PG02 -11049.713098  15963.301613 -17586.036099   -634.157798
PG03  23419.861108 -12343.422819   1113.354844   -375.171274
PG04  17778.443773  -4576.288142 -19230.985981    -72.653925
PG05 -22610.775630   2699.247163 -13939.694136   -107.224748
PG06  -6310.642501 -23622.743159 -10201.065495    535.536541
PG07   6535.555597 -23804.192772  -8691.452841    277.484780
PG08  23805.739046   4165.978458  11390.390786    -97.572853
PG09   7045.328567 -13681.885495 -21727.416740   -256.957781
PG10   -437.768254  16486.895530  20907.676235    -15.145159
PG11 -12302.108560 -13956.516941 -18961.009806    -52.861060
PG12 -24351.454489  10275.062387   1694.936839   -313.313271
PG13 -22638.135838 -12628.389787   6049.853211    438.120405
PG14   3347.440521 -17535.076929  19636.043753    -71.725830
PG15 -24122.888785  -1358.836805  10891.820729     -5.964094
PG16  20783.125176   3280.204414 -16772.062244   -526.416375
PG17  -6015.246846 -18860.278648  18109.782782    684.155086
PG18  -5448.468624  24975.594392  -6929.984777    -50.651644
PG19 -16205.367578 -19301.608158   8566.914472    247.572561
PG20 -14902.445903  -7174.330253 -20718.126894    465.032003
PG21  15360.135161  -2058.451521  22149.089022    154.362229
PG22  17955.294557  18605.207064   6892.042772    380.194619
PG23 -11802.789129  18727.103478  14568.865717     -0.254051
PG24 -14573.221167   7697.541788  20411.784070     25.733042
PG25 -18907.174639  17002.504582  -7447.298408    399.964214
PG26  11749.755818  11026.649248 -21244.980711    237.873682
PG27  23394.258391  12990.254701    930.428447    159.004708
PG29  -9917.623210  11147.107750 -22017.846849   -572.502178
PG30  -1341.878048 -26265.429933   2613.281782   -535.748358
PG31   7559.284143  22441.336038 -11706.101764   -202.586760
PG32  10194.250161  18855.760191  15965.071248   -322.035504
PJ02 -35888.513752  21393.100201  -1285.515410     -0.267792
PJ03 -18990.946732  25551.889855 -23028.071056     -6.187869
PJ04 -28478.697652  29522.439614  16192.443024    114.625516
PJ07 -25367.970104  33671.152363     36.598226      0.053848
PR01  21360.178438  -4613.647321 -13157.336426     19.166820
PR02   4165.847203 -10352.059334 -22904.813570    -23.411827
PR03 -14641.726985 -10181.298758 -18169.312839     68.670764
PR04 -24872.322742  -4398.076183  -3471.367209    167.751316
PR05 -21532.689139   3710.458913  13141.857709    104.180722
PR06  -2510.208999  10836.189743  22938.757734    -84.153267
PR07  15402.012455  10067.152395  17727.093432     45.678875
PR08  24937.416031   4285.123894   3428.326597    -68.465822
PR09  -9915.835048  21897.122661  -8629.961257     91.793455
PR10   1267.374628  15228.357236 -20410.420375    -88.495586
PR11  13125.637201   -677.552007 -21850.815795     16.320043
PR12  17178.364768 -16563.615043  -9019.720303     23.465246
PR13  11108.672756 -21825.726489   7128.162590    -29.718187
PR14  -2512.986046 -14124.714014  21096.371962     24.076413
PR15 -13747.892597   1481.199742  21451.005254     92.477268
PR17 -11332.887933 -22707.068196  -2774.156647    584.964717
PR18 -13815.383667 -12169.038511 -17609.864918     55.722488
PR19  -9910.107213   3077.505695 -23294.746553   -213.748077
PR20   1094.517269  20742.359796 -14818.043775    -83.544135
PR21  11759.116596  22172.071901   4483.634556   -355.748985
PR22  13649.826242  11863.887122  18025.643341     19.512502
PR23   7534.971622  -8437.271797  22861.689535    -64.789437
PR24  -1804.636844 -21126.004240  14218.479743    131.328792
PR25  10089.767812  23294.914905   2385.714582     48.315604
EOF
